OBJECT_NAME,OBJECT_ID,EPOCH,MEAN_MOTION,ECCENTRICITY,INCLINATION,RA_OF_ASC_NODE,ARG_OF_PERICENTER,MEAN_ANOMALY,EPHEMERIS_TYPE,CLASSIFICATION_TYPE,NORAD_CAT_ID,ELEMENT_SET_NO,REV_AT_EPOCH,BSTAR,MEAN_MOTION_DOT,MEAN_MOTION_DDOT
COSMOS 2507 (RODNIK-S 13),2015-050A,2026-07-08T23:10:38.091360,12.42927035,.00092276,82.4911,66.1093,308.3051,51.7199,0,U,40920,999,48956,-.49129939E-3,-.58E-6,0
COSMOS 2508 (RODNIK-S 14),2015-050B,2026-07-09T00:02:04.448832,12.42914817,.0014226,82.4863,64.5838,340.6212,19.4325,0,U,40921,999,48955,-.11818492E-3,-.7E-7,0
COSMOS 2509 (RODNIK-S 15),2015-050C,2026-07-08T22:36:13.108032,12.42884079,.00149158,82.4871,64.7255,357.8121,2.2891,0,U,40922,999,48958,-.56027745E-3,-.68E-6,0
LINGQIAO VIDEO A,2015-057B,2026-07-08T23:12:01.900224,14.77422206,.00161439,97.6634,183.6951,193.5531,166.5248,0,U,40959,999,57862,.75038299E-4,.487E-5,0
LINGQIAO VIDEO B,2015-057C,2026-07-08T22:36:11.536416,14.77526309,.00163144,97.6599,184.8292,193.7337,166.3433,0,U,40960,999,57866,.35884691E-4,.208E-5,0
JILIN-1,2015-057D,2026-07-08T22:41:38.153472,14.78195008,.00166456,97.6514,188.2328,187.1926,172.9049,0,U,40961,999,57882,.83080799E-4,.555E-5,0
FOX-1A (AO-85),2015-058D,2026-07-08T08:18:40.529088,14.91062267,.01318339,64.7733,213.2226,48.4039,312.8281,0,U,40967,999,11672,.15149463E-3,.1594E-4,0
SINOD-D 1,2015-058E,2026-07-08T11:17:29.360544,14.96046656,.01205081,64.7734,192.2541,44.7381,316.3376,0,U,40968,999,11984,.25217828E-3,.3105E-4,0
ELEKTRO-L 2,2015-074A,2026-07-08T10:12:33.980256,1.00273098,.00006934,6.7437,70.2631,230.4230,124.3160,0,U,41105,999,3871,0,-.107E-5,0
DAMPE,2015-078A,2026-07-09T00:01:18.777792,15.30842855,.00122629,97.4566,195.5757,7.5435,352.5988,0,U,41173,999,58788,.32970758E-4,.906E-5,0
ORBCOMM FM110,2015-081D,2026-07-08T16:14:29.093568,14.58913187,.00032683,47.0015,259.8334,194.3105,165.7689,0,U,41182,999,56076,.11418395E-3,.369E-5,0
ORBCOMM FM112,2015-081F,2026-07-08T15:31:19.676064,14.58931606,.00040228,46.9974,168.7675,301.5516,58.4977,0,U,41184,999,56208,.14506665E-3,.515E-5,0
ORBCOMM FM113,2015-081G,2026-07-08T14:58:42.699648,14.58877609,.000251,46.9992,169.2617,297.8833,62.1799,0,U,41185,999,56206,.89811925E-4,.253E-5,0
ORBCOMM FM108,2015-081J,2026-07-08T09:08:18.515904,14.58903233,.00029562,47.0052,81.9922,297.6319,62.4266,0,U,41187,999,56317,.13232176E-3,.455E-5,0
ORBCOMM FM117,2015-081K,2026-07-08T01:44:24.310176,14.58889920,.00034342,47.0014,82.0783,302.2374,57.8178,0,U,41188,999,56317,.12375711E-3,.414E-5,0
ORBCOMM FM116,2015-081L,2026-07-08T17:42:03.513888,14.58901693,.00013301,47.0009,168.7225,212.2170,147.8635,0,U,41189,999,56208,.63411418E-4,.129E-5,0
ZIYUAN 3-02 (ZY 3-02),2016-033A,2026-07-08T23:04:26.641344,15.21393782,.00134104,97.3828,265.3169,207.1140,152.9397,0,U,41556,999,56129,.15731676E-3,.3467E-4,0
CARTOSAT-2C,2016-040A,2026-07-08T23:50:32.223264,15.19230736,.00099898,97.4470,249.6702,63.5224,296.7034,0,U,41599,999,55702,.96850132E-4,.1974E-4,0
LAPAN-A3,2016-040E,2026-07-08T23:45:50.203296,15.33251558,.000842,97.1498,185.4219,303.2676,56.7760,0,U,41603,999,55815,.73179647E-4,.2278E-4,0
GAOFEN-3,2016-049A,2026-07-09T00:10:40.442592,14.42217646,.00017399,98.4020,197.4639,91.2174,268.9215,0,U,41727,999,52179,-.45707766E-4,-.194E-5,0
CAS-2T & KS-1Q,2016-066G,2026-07-08T18:42:54.879840,14.44760997,.03425546,98.3814,265.2689,64.1810,299.4295,0,U,41847,999,50791,.1449633E-3,.981E-5,0
YUNHAI-1 01,2016-068A,2026-07-08T22:59:51.167904,14.32718143,.0003593,98.5852,200.7614,6.5758,353.5473,0,U,41857,999,50494,.18871891E-4,.7E-7,0
RESOURCESAT-2A,2016-074A,2026-07-08T23:01:59.602368,14.21607932,.00026996,98.7517,263.2857,42.0093,318.1291,0,U,41877,999,49739,.6627557E-4,.101E-5,0
TANSAT,2016-081A,2026-07-08T23:22:48.993024,14.59967852,.00191927,98.5374,190.8762,240.4936,119.4349,0,U,41898,999,50780,.9148766E-5,-.7E-7,0
